[{"OBJECT_NAME":"SHIYAN-19 (SY-19)","OBJECT_ID":"2023-034A","EPOCH":"2026-03-09T22:24:15.893856","MEAN_MOTION":15.52820552,"ECCENTRICITY":0.00056958,"INCLINATION":97.4064,"RA_OF_ASC_NODE":281.9524,"ARG_OF_PERICENTER":8.3622,"MEAN_ANOMALY":351.7724,"EPHEMERIS_TYPE":0,"CLASSIFICATION_TYPE":"U","NORAD_CAT_ID":55861,"ELEMENT_SET_NO":999,"REV_AT_EPOCH":16714,"BSTAR":0.00038152974,"MEAN_MOTION_DOT":0.00023587,"MEAN_MOTION_DDOT":0},{"OBJECT_NAME":"STARLINK-36597","OBJECT_ID":"2026-018AA","EPOCH":"2026-03-09T22:00:01.999584","MEAN_MOTION":15.6227294,"ECCENTRICITY":0.00019632,"INCLINATION":97.2837,"RA_OF_ASC_NODE":134.8157,"ARG_OF_PERICENTER":78.0826,"MEAN_ANOMALY":100.8672,"EPHEMERIS_TYPE":0,"CLASSIFICATION_TYPE":"U","NORAD_CAT_ID":67613,"ELEMENT_SET_NO":999,"REV_AT_EPOCH":604,"BSTAR":-0.025061707,"MEAN_MOTION_DOT":-0.01947068,"MEAN_MOTION_DDOT":0}]
